{
  "type": "FeatureCollection",
  "features": [
    {
      "type": "Feature",
      "properties": {
        "norad_id": 39773,
        "name": "EUTELSAT 3B",
        "group": "eutelsat",
        "lat": 0.009065660500867203,
        "lon": 13.90048898080272,
        "alt_km": 35801.297163790136,
        "timestamp": "2025-12-08T19:31:48.499152+00:00",
        "meta_object_name": "EUTELSAT 3B",
        "meta_object_id": "2014-030A",
        "meta_epoch": "2025-12-08T01:37:58.861632",
        "meta_mean_motion": 1.00272157,
        "meta_eccentricity": 0.00046528,
        "meta_inclination": 0.0657,
        "meta_ra_of_asc_node": 14.3376,
        "meta_arg_of_pericenter": 217.9567,
        "meta_mean_anomaly": 232.3839,
        "meta_ephemeris_type": 0,
        "meta_classification_type": "U",
        "meta_norad_cat_id": 39773,
        "meta_element_set_no": 999,
        "meta_rev_at_epoch": 4215,
        "meta_bstar": 0,
        "meta_mean_motion_dot": 2.3e-07,
        "meta_mean_motion_ddot": 0,
        "tle_line1": "1 39773U 14030A   25342.06804238  .00000023  00000+0  00000+0 0  9997",
        "tle_line2": "2 39773   0.0657  14.3376 0004652 217.9567 232.3839  1.00272157 42154"
      },
      "geometry": {
        "type": "Point",
        "coordinates": [
          13.90048898080272,
          0.009065660500867203
        ]
      }
    },
    {
      "type": "Feature",
      "properties": {
        "norad_id": 40425,
        "name": "EUTELSAT 115 WEST B",
        "group": "eutelsat",
        "lat": 0.011868068904299622,
        "lon": -104.13790220259216,
        "alt_km": 35788.362239967995,
        "timestamp": "2025-12-08T19:31:48.499162+00:00",
        "meta_object_name": "EUTELSAT 115 WEST B",
        "meta_object_id": "2015-010B",
        "meta_epoch": "2025-12-08T01:04:24.577824",
        "meta_mean_motion": 1.00265397,
        "meta_eccentricity": 1.304e-05,
        "meta_inclination": 0.0096,
        "meta_ra_of_asc_node": 159.4384,
        "meta_arg_of_pericenter": 297.017,
        "meta_mean_anomaly": 241.8202,
        "meta_ephemeris_type": 0,
        "meta_classification_type": "U",
        "meta_norad_cat_id": 40425,
        "meta_element_set_no": 999,
        "meta_rev_at_epoch": 3947,
        "meta_bstar": 0,
        "meta_mean_motion_dot": -2.1e-07,
        "meta_mean_motion_ddot": 0,
        "tle_line1": "1 40425U 15010B   25342.04472891 -.00000021  00000+0  00000+0 0  9995",
        "tle_line2": "2 40425   0.0096 159.4384 0000130 297.0170 241.8202  1.00265397 39471"
      },
      "geometry": {
        "type": "Point",
        "coordinates": [
          -104.13790220259216,
          0.011868068904299622
        ]
      }
    },
    {
      "type": "Feature",
      "properties": {
        "norad_id": 40875,
        "name": "EUTELSAT 8 WEST B",
        "group": "eutelsat",
        "lat": 0.012091407685960322,
        "lon": 2.8226004344320206,
        "alt_km": 35790.44549103898,
        "timestamp": "2025-12-08T19:31:48.499173+00:00",
        "meta_object_name": "EUTELSAT 8 WEST B",
        "meta_object_id": "2015-039B",
        "meta_epoch": "2025-12-08T06:42:59.648256",
        "meta_mean_motion": 1.00271425,
        "meta_eccentricity": 0.00041396,
        "meta_inclination": 0.0646,
        "meta_ra_of_asc_node": 358.0552,
        "meta_arg_of_pericenter": 260.6381,
        "meta_mean_anomaly": 271.3584,
        "meta_ephemeris_type": 0,
        "meta_classification_type": "U",
        "meta_norad_cat_id": 40875,
        "meta_element_set_no": 999,
        "meta_rev_at_epoch": 3774,
        "meta_bstar": 0,
        "meta_mean_motion_dot": -6.3e-07,
        "meta_mean_motion_ddot": 0,
        "tle_line1": "1 40875U 15039B   25342.27985704 -.00000063  00000+0  00000+0 0  9998",
        "tle_line2": "2 40875   0.0646 358.0552 0004139 260.6381 271.3584  1.00271425 37746"
      },
      "geometry": {
        "type": "Point",
        "coordinates": [
          2.8226004344320206,
          0.012091407685960322
        ]
      }
    },
    {
      "type": "Feature",
      "properties": {
        "norad_id": 41310,
        "name": "EUTELSAT 9B",
        "group": "eutelsat",
        "lat": -0.05033440786293215,
        "lon": 19.825968286254167,
        "alt_km": 35793.28012650479,
        "timestamp": "2025-12-08T19:31:48.499183+00:00",
        "meta_object_name": "EUTELSAT 9B",
        "meta_object_id": "2016-005A",
        "meta_epoch": "2025-12-08T03:22:26.357376",
        "meta_mean_motion": 1.00273093,
        "meta_eccentricity": 0.00050117,
        "meta_inclination": 0.078,
        "meta_ra_of_asc_node": 76.11,
        "meta_arg_of_pericenter": 192.7395,
        "meta_mean_anomaly": 227.9175,
        "meta_ephemeris_type": 0,
        "meta_classification_type": "U",
        "meta_norad_cat_id": 41310,
        "meta_element_set_no": 999,
        "meta_rev_at_epoch": 3620,
        "meta_bstar": 0,
        "meta_mean_motion_dot": 6.5e-07,
        "meta_mean_motion_ddot": 0,
        "tle_line1": "1 41310U 16005A   25342.14058284  .00000065  00000+0  00000+0 0  9998",
        "tle_line2": "2 41310   0.0780  76.1100 0005011 192.7395 227.9175  1.00273093 36203"
      },
      "geometry": {
        "type": "Point",
        "coordinates": [
          19.825968286254167,
          -0.05033440786293215
        ]
      }
    },
    {
      "type": "Feature",
      "properties": {
        "norad_id": 41382,
        "name": "EUTELSAT 65 WEST A",
        "group": "eutelsat",
        "lat": -0.05427277767743886,
        "lon": -54.44183320417743,
        "alt_km": 35777.40311448162,
        "timestamp": "2025-12-08T19:31:48.499208+00:00",
        "meta_object_name": "EUTELSAT 65 WEST A",
        "meta_object_id": "2016-014A",
        "meta_epoch": "2025-12-08T04:44:03.538752",
        "meta_mean_motion": 1.0026917,
        "meta_eccentricity": 0.00028626,
        "meta_inclination": 0.0492,
        "meta_ra_of_asc_node": 0.7847,
        "meta_arg_of_pericenter": 266.3312,
        "meta_mean_anomaly": 175.887,
        "meta_ephemeris_type": 0,
        "meta_classification_type": "U",
        "meta_norad_cat_id": 41382,
        "meta_element_set_no": 999,
        "meta_rev_at_epoch": 3562,
        "meta_bstar": 0,
        "meta_mean_motion_dot": -2.73e-06,
        "meta_mean_motion_ddot": 0,
        "tle_line1": "1 41382U 16014A   25342.19726318 -.00000273  00000+0  00000+0 0  9994",
        "tle_line2": "2 41382   0.0492   0.7847 0002862 266.3312 175.8870  1.00269170 35620"
      },
      "geometry": {
        "type": "Point",
        "coordinates": [
          -54.44183320417743,
          -0.05427277767743886
        ]
      }
    },
    {
      "type": "Feature",
      "properties": {
        "norad_id": 41589,
        "name": "EUTELSAT 117 WEST B",
        "group": "eutelsat",
        "lat": 0.014935973886845859,
        "lon": -106.23771172706289,
        "alt_km": 35787.81113361482,
        "timestamp": "2025-12-08T19:31:48.499228+00:00",
        "meta_object_name": "EUTELSAT 117 WEST B",
        "meta_object_id": "2016-038B",
        "meta_epoch": "2025-12-08T05:51:27.089856",
        "meta_mean_motion": 1.00271014,
        "meta_eccentricity": 3.727e-05,
        "meta_inclination": 0.0062,
        "meta_ra_of_asc_node": 152.2728,
        "meta_arg_of_pericenter": 268.7532,
        "meta_mean_anomaly": 347.0922,
        "meta_ephemeris_type": 0,
        "meta_classification_type": "U",
        "meta_norad_cat_id": 41589,
        "meta_element_set_no": 999,
        "meta_rev_at_epoch": 3474,
        "meta_bstar": 0,
        "meta_mean_motion_dot": -9e-08,
        "meta_mean_motion_ddot": 0,
        "tle_line1": "1 41589U 16038B   25342.24406354 -.00000009  00000+0  00000+0 0  9997",
        "tle_line2": "2 41589   0.0062 152.2728 0000372 268.7532 347.0922  1.00271014 34740"
      },
      "geometry": {
        "type": "Point",
        "coordinates": [
          -106.23771172706289,
          0.014935973886845859
        ]
      }
    },
    {
      "type": "Feature",
      "properties": {
        "norad_id": 42741,
        "name": "EUTELSAT 172B",
        "group": "eutelsat",
        "lat": -0.00017503044075192005,
        "lon": -177.23413295316197,
        "alt_km": 35786.06499281597,
        "timestamp": "2025-12-08T19:31:48.499239+00:00",
        "meta_object_name": "EUTELSAT 172B",
        "meta_object_id": "2017-029B",
        "meta_epoch": "2025-12-08T02:26:16.735776",
        "meta_mean_motion": 1.00270118,
        "meta_eccentricity": 1.898e-05,
        "meta_inclination": 0.0115,
        "meta_ra_of_asc_node": 86.953,
        "meta_arg_of_pericenter": 151.0152,
        "meta_mean_anomaly": 47.7234,
        "meta_ephemeris_type": 0,
        "meta_classification_type": "U",
        "meta_norad_cat_id": 42741,
        "meta_element_set_no": 999,
        "meta_rev_at_epoch": 3181,
        "meta_bstar": 0,
        "meta_mean_motion_dot": -3e-08,
        "meta_mean_motion_ddot": 0,
        "tle_line1": "1 42741U 17029B   25342.10158259 -.00000003  00000+0  00000+0 0  9996",
        "tle_line2": "2 42741   0.0115  86.9530 0000189 151.0152  47.7234  1.00270118 31811"
      },
      "geometry": {
        "type": "Point",
        "coordinates": [
          -177.23413295316197,
          -0.00017503044075192005
        ]
      }
    }
  ]
}